[{"OBJECT_NAME":"STARLINK-34158","OBJECT_ID":"2025-101C","EPOCH":"2026-03-09T03:27:58.027968","MEAN_MOTION":15.27603972,"ECCENTRICITY":0.00013604,"INCLINATION":43.0035,"RA_OF_ASC_NODE":0.9277,"ARG_OF_PERICENTER":284.6533,"MEAN_ANOMALY":75.4168,"EPHEMERIS_TYPE":0,"CLASSIFICATION_TYPE":"U","NORAD_CAT_ID":63996,"ELEMENT_SET_NO":999,"REV_AT_EPOCH":4697,"BSTAR":0.0011659989,"MEAN_MOTION_DOT":0.00031986,"MEAN_MOTION_DDOT":0},{"OBJECT_NAME":"OBJECT G","OBJECT_ID":"2025-155G","EPOCH":"2026-03-09T22:09:56.639808","MEAN_MOTION":15.27590702,"ECCENTRICITY":0.00081871,"INCLINATION":97.4488,"RA_OF_ASC_NODE":37.3259,"ARG_OF_PERICENTER":154.1528,"MEAN_ANOMALY":206.0122,"EPHEMERIS_TYPE":0,"CLASSIFICATION_TYPE":"U","NORAD_CAT_ID":64882,"ELEMENT_SET_NO":999,"REV_AT_EPOCH":6559,"BSTAR":0.0004792617,"MEAN_MOTION_DOT":0.00012876,"MEAN_MOTION_DDOT":0}]
